[{"OBJECT_NAME":"STARLINK-34749","OBJECT_ID":"2025-211Z","EPOCH":"2026-03-09T16:00:18.794016","MEAN_MOTION":15.05648009,"ECCENTRICITY":9.926e-5,"INCLINATION":97.6041,"RA_OF_ASC_NODE":114.1235,"ARG_OF_PERICENTER":160.2549,"MEAN_ANOMALY":199.8716,"EPHEMERIS_TYPE":0,"CLASSIFICATION_TYPE":"U","NORAD_CAT_ID":65675,"ELEMENT_SET_NO":999,"REV_AT_EPOCH":2704,"BSTAR":9.1968073e-5,"MEAN_MOTION_DOT":1.266e-5,"MEAN_MOTION_DDOT":0},{"OBJECT_NAME":"MINOTAUR 4 DEB","OBJECT_ID":"2020-046AB","EPOCH":"2026-03-09T21:53:22.840224","MEAN_MOTION":15.04149387,"ECCENTRICITY":0.00103054,"INCLINATION":53.9803,"RA_OF_ASC_NODE":316.6393,"ARG_OF_PERICENTER":80.1776,"MEAN_ANOMALY":280.0387,"EPHEMERIS_TYPE":0,"CLASSIFICATION_TYPE":"U","NORAD_CAT_ID":52037,"ELEMENT_SET_NO":999,"REV_AT_EPOCH":22693,"BSTAR":0.00012711185,"MEAN_MOTION_DOT":1.507e-5,"MEAN_MOTION_DDOT":0}]
